Place,Address,IsClosed,Fee,MinFee,MaxFee,Start,End,Latitude,Longitude,Expected Duration,Historical,Nature,Religious,Art,Activities,Entertainment,Culture,Image,,,,,Description
Temple of Leah,"Roosevelt Street Busay, Cebu City 6000 Philippines",0,100,,,7:00:00,18:00:00,10.36914746,123.8734036,1-2 hours,1,0,0,1,0,0,1,"/location_images/Temple_of_Leah/Temple_of_Leah.jpg,/location_images/Temple_of_Leah/Temple_of_Leah_6KTubzg.jpg",,,,,"The Temple of Leah, located in Cebu, Philippines, is a magnificent and unique architectural marvel. Built as a symbol of undying love and devotion, it is often referred to as the ""Taj Mahal of Cebu."" This grandiose temple was constructed in 2012 by Teodorico Adarna, a wealthy businessman, in honor of his late wife, Leah Villa Albino-Adarna. Perched on a hill in the Busay district overlooking the city of Cebu, the Temple of Leah boasts Greco-Roman architecture with striking columns, statues, and intricate detailing."
Cebu Taoist Temple,"Beverly Hills, Cebu City 6000 Philippines",0,0,,,8:00:00,17:00:00,10.33424816,123.8879844,1-2 hours,1,0,1,1,0,0,0,"/location_images/Cebu_Taoist_Temple/Cebu_Taoist_Temple.jpg,/location_images/Cebu_Taoist_Temple/Cebu_Taoist_Temple_meMvDcI.jpg,/location_images/Cebu_Taoist_Temple/Cebu_Taoist_Temple_dxv3W1H.jpg",,,,,"The Cebu Cebu Taoist Temple, situated in the Beverly Hills Subdivision of Cebu City, Philippines, is a fascinating religious and cultural landmark. This serene and visually striking temple was built by Cebu's Chinese community and is dedicated to the teachings of Taoism, an ancient Chinese philosophical and religious tradition.

Visitors to the Cebu Cebu Taoist Temple are welcomed by a majestic entrance gate adorned with intricate Chinese symbols and designs. The temple itself is an architectural marvel, featuring vibrant colors, dragon motifs, and ornate details that evoke the rich heritage of Chinese culture."
Mactan Shrine,"Lapu-Lapu City, Cebu",0,0,,,5:00:00,22:00:00,10.31086995,124.0152303,1-2 hours,1,0,0,0,0,0,1,"/location_images/Mactan_Shrine/Mactan_Shrine.jpg,/location_images/Mactan_Shrine/Mactan_Shrine_Ny1GwDc.jpg",,,,,"The Mactan Shrine is a historical and cultural landmark located on Mactan Island in Cebu, Philippines. It commemorates the Battle of Mactan, which took place on April 27, 1521, and is famous for the clash between the Spanish explorer Ferdinand Magellan and the native chieftain Lapu-Lapu.

The shrine features several significant elements, including a larger-than-life statue of Lapu-Lapu, who is celebrated as a national hero for his resistance against foreign colonization. Visitors can also explore a mural depicting the battle, an observation deck offering views of nearby islands and the Mactan Channel, and a museum that provides insights into the history and culture of the region."
Magellan's Cross,"P. Burgos St., Cebu City, Cebu",0,0,,,8:00:00,18:00:00,10.29352076,123.9019409,1 hour,1,0,0,0,0,0,1,"/location_images/Magellan's_Cross/Magellans_Cross.jpg,/location_images/Magellan's_Cross/Magellans_Cross_SMjHdmm.jpg,/location_images/Magellan's_Cross/Magellans_Cross_S8KQCKw.jpg",,,,,"Magellan's Cross,  is a significant historical and cultural relic that symbolizes the arrival of Spanish explorer Ferdinand Magellan in the Philippines in 1521. The cross is housed in a small chapel near Cebu City Hall and is made of tindalo wood encased in hollowed-out tindalo tree trunk.

This iconic wooden cross is said to have been planted by Magellan himself as a symbol of the introduction of Christianity to the Philippines, making it a cornerstone of the country's Christian history. The chapel surrounding the cross is a popular tourist destination and a place of reverence for many Filipinos."
Basilica Minore Del Santo Nino,"Osmena Boulevard, Cebu City, Cebu",0,0,,,6:00:00,19:00:00,10.29406702,123.9021057,1-2 hours,1,0,1,0,0,0,1,"/location_images/Basilica_Minore_Del_Santo_Nino/Basilica_Minore_Del_Santo_Nino.jpg,/location_images/Basilica_Minore_Del_Santo_Nino/Basilica_Minore_Del_Santo_Nino_mtnVMnh.jpg,/location_images/Basilica_Minore_Del_Santo_Nino/Basilica_Minore_Del_Santo_Nino_XMqOcQv.jpg",,,,,"The Basilica Minore del Santo Niño , is one of the country's most revered and historic religious sites. It is considered the oldest Roman Catholic church in the Philippines, with its origins dating back to the early 16th century.

The basilica is closely associated with the Santo Niño de Cebu, a statue of the Child Jesus, which was a gift from Ferdinand Magellan to Rajah Humabon's wife, Queen Juana, during Magellan's arrival in Cebu in 1521. The image is enshrined in the basilica and is venerated by millions of devotees from all over the Philippines and beyond.

The Basilica Minore del Santo Niño is an architectural masterpiece, showcasing a blend of Spanish colonial and Filipino design elements."
Fort San Pedro,"A. Pigafetta Street, Cebu City, Cebu",0,30,,,8:00:00,17:00:00,10.29245509,123.9056361,1-2 hours,1,0,0,0,0,0,0,"/location_images/Fort_San_Pedro/Fort_San_Pedro.jpg,/location_images/Fort_San_Pedro/Fort_San_Pedro_ebhXqzm.jpg",,,,,"Fort San Pedro, is a historical military fortification with roots dating back to the Spanish colonial period. It is recognized as the oldest triangular bastion fort in the country, and it played a significant role in Philippine history.

Built by Spanish conquistadors in 1565 under the command of Miguel López de Legazpi, Fort San Pedro was initially constructed as a defensive structure against local indigenous forces and Muslim raiders. The fort features sturdy stone walls, cannons, and a central courtyard. Over the centuries, it served various purposes, including as a military fortress, a prison during the American colonial period, and eventually as a historical park and museum."
Upside Down World,"2nd Floor Unit A 204-205-206 City Time Square Phase 2 Mantawi Int'l Drive, Tipolo, Mandaue City, Cebu",1,250,,,10:00:00,21:00:00,10.32674003,123.9334251,1-2 hours,0,0,0,1,0,1,0,"/location_images/Upside_Down_World/Upside_Down_World.jpg,/location_images/Upside_Down_World/Upside_Down_World_CSVlZ3W.jpg",,,,,"Upside Down World in Cebu is a captivating and whimsical attraction that defies gravity and sparks creativity. Inside this playful venue, visitors step into rooms where everything is deliberately placed upside down – from furniture to household items. It's a surreal experience that invites guests to let their imagination run wild as they interact with the topsy-turvy environment, making for delightful and gravity-defying photo opportunities. Upside Down World is a fun-filled destination that promises laughter and wonder, perfect for families, friends, and anyone looking to capture memorable and mind-bending snapshots."
Casa Gorordo Museum,"35 Eduardo Aboitiz St, Cebu City, 6000 Cebu",0,,50,150,9:00:00,17:00:00,10.29976554,123.9048913,1-2 hours,1,0,0,0,0,0,1,"/location_images/Casa_Gorordo_Museum/Casa_Gorordo_Museum.png,/location_images/Casa_Gorordo_Museum/Casa_Gorordo_Museum.jpg",,,,,"Casa Gorordo Museum in Cebu City is a captivating journey back in time to the 19th century. This beautifully preserved ancestral house provides a window into the lives of a prosperous Filipino family during the Spanish colonial era. Inside, meticulously arranged rooms showcase antique furniture, household items, traditional clothing, and religious artifacts, offering valuable insights into Cebu's rich history and cultural heritage. The museum's architecture and ambiance immerse visitors in the elegance and opulence of a bygone era, making it a must-visit destination for history enthusiasts and those eager to explore Cebu's colonial past."
Cebu Provincial Museum,"731 M. J. Cuenco Ave, Cebu City, 6000 Cebu",0,,10,75,10:00:00,15:00:00,10.30379163,123.9064319,1-2 hours,1,0,0,0,0,0,1,"/location_images/Cebu_Provincial_Museum/Cebu_Provincial_Museum.jpg,/location_images/Cebu_Provincial_Museum/Cebu_Provincial_Museum_uCAozoh.jpg",,,,,"The Cebu Provincial Museum is a cultural treasure trove nestled in the heart of Cebu City. It serves as a captivating repository of the region's rich history and heritage, offering visitors an enlightening journey through time. The museum's diverse collection includes archaeological artifacts, religious relics, and ethnographic displays, providing a comprehensive overview of Cebu's cultural tapestry. As you explore its halls, you'll gain a deeper understanding of the Philippines' fascinating past and the pivotal role Cebu played in its history.

Housed within a thoughtfully designed space, the Cebu Provincial Museum invites guests to engage with the stories and traditions that have shaped the island's identity. "
Jesuit House Museum,"26 Zulueta St, Cebu City, 6000 Cebu",0,50,,,8:00:00,17:00:00,10.29866874,123.9040431,1 hour,1,0,1,0,0,0,0,/location_images/Jesuit_House_Museum/Jesuit_House_Museum.jpg,,,,,"The Jesuit House Museum, also known as the Museo de Parian, is a historical gem nestled in the heart of Cebu City. Housed in one of the oldest and most beautifully preserved houses in the Philippines, this museum offers visitors a captivating glimpse into Cebu's colonial past. The museum's exhibits focus on Cebu's role in trade and commerce during the Spanish colonial period, showcasing artifacts and displays that provide valuable insights into the island's history. As you explore its well-preserved corridors and rooms, you'll be transported back in time to an era of Spanish influence and thriving cultural exchange. The Jesuit House Museum is a testament to the enduring heritage of Cebu and a must-visit destination for history enthusiasts and cultural explorers."
Yap-San Diego Ancestral House,"155 Mabini St, Cebu City, 6000 Cebu",0,,50,100,9:00:00,19:00:00,10.29927053,123.9039525,< 1 hour,1,0,0,0,0,0,0,"/location_images/Yap-San_Diego_Ancestral_House/Yap-San_Diego_Ancestral_House.jpg,/location_images/Yap-San_Diego_Ancestral_House/Yap-San_Diego_Ancestral_House_99F6WSP.jpg,/location_images/Yap-San_Diego_Ancestral_House/Yap-San_Diego_Ancestral_House_qkWA53W.jpg",,,,,"The Yap-San Diego Ancestral House is a captivating piece of living history located in Cebu City. This well-preserved ancestral home offers a captivating journey into the past, providing visitors with a window into the lifestyle of a prosperous Filipino-Chinese family during the Spanish colonial era. The house is an architectural masterpiece, showcasing the intricate details of 17th-century Filipino-Spanish design with its wooden lattice-work and Capiz shell windows.

As you step inside, you'll find a treasure trove of antique furniture, art, and memorabilia that tell the story of Cebu's rich cultural heritage. The Yap-San Diego Ancestral House is not just a museum but a living testament to the vibrant traditions and customs of a bygone era. It's a must-visit destination for history buffs, architecture enthusiasts, and anyone seeking to immerse themselves in the charm and opulence of Cebu's colonial past."
Island Eco Tourism Park,"Sabang, Asinan, Lapu-Lapu City, 6015 Cebu",0,,20,260,0:00:00,23:59:59,10.24823498,124.048425,-,0,0,0,0,1,1,0,"/location_images/Island_Eco_Tourism_Park/Island_Eco_Tourism_Park.JPG,/location_images/Island_Eco_Tourism_Park/Island_Eco_Tourism_Park_h2z9OYk.JPG",,,,,"Island Eco Tourism Park is a pristine natural haven nestled in the heart of Cebu's lush landscapes. This eco-friendly park offers a serene escape from the hustle and bustle of urban life, making it an ideal destination for nature lovers and outdoor enthusiasts. The park boasts a range of activities for visitors to enjoy, including zip-lining through the treetops, hiking along scenic trails, and bird-watching amidst the abundant flora and fauna.

Surrounded by the beauty of nature, Island Eco Tourism Park provides a perfect opportunity to reconnect with the environment. Whether you're seeking adventure, relaxation, or simply a peaceful getaway, this park offers a refreshing and eco-conscious experience, making it a must-visit destination for those looking to immerse themselves in Cebu's natural wonders."
Halad Museum,"J and J Building, Dionisio Jakosalem Street corner V. Gullas Street, Cebu City, Cebu ",1,10,,,9:00:00,17:00:00,10.29703306,123.9020852,1 hour,1,0,0,1,0,0,1,"/location_images/Halad_Museum/Halad_Museum.jpg,/location_images/Halad_Museum/Halad_Museum_LUUZdEa.jpg",,,,,"The Halad Museum is a cultural gem, that celebrates the rich traditions and heritage of the Cebuano people. This museum is a captivating tribute to the vibrant customs of Cebu, particularly its music, dance, and traditional rituals. Inside, visitors can explore exhibits that showcase the various aspects of Cebuano culture, including colorful costumes, musical instruments, and artifacts related to religious festivals and celebrations.

Halad Museum serves as a valuable resource for those interested in understanding the cultural depth and diversity of Cebu. It offers an educational and immersive experience that allows guests to appreciate the artistry and passion that define the Cebuano way of life. Whether you're a cultural enthusiast or simply curious about the traditions of Cebu, the Halad Museum provides a fascinating and enlightening journey into the heart of Filipino heritage."
BPI Museum,"P. Burgos Street, Inside BPI bank, Cebu City, PH 6000",0,0,,,9:00:00,16:00:00,10.29358104,123.9025823,1-2 hours,1,0,0,0,0,0,0,"/location_images/BPI_Museum/BPI_Museum.jpg,/location_images/BPI_Museum/BPI_Museum.jpeg",,,,,"The BPI Museum in Cebu is a fascinating institution that offers a unique perspective on the history of banking and finance in the Philippines. Housed within the Bank of the Philippine Islands (BPI) building, the museum presents a comprehensive journey through the evolution of currency, banking practices, and the pivotal role that BPI has played in the country's economic development.

Inside the BPI Museum, visitors can explore a wealth of historical artifacts, old banking equipment, vintage banknotes, and engaging interactive exhibits. These displays provide valuable insights into how the Philippine economy has evolved over the years and how banking institutions like BPI have adapted to meet the needs of a changing society. Whether you have a keen interest in finance or simply want to gain a better understanding of the Philippines' economic history, the BPI Museum in Cebu offers an informative and enlightening experience."
Jumalon Butterfly Sanctuary And Art Gallery,"J.N. Jumalon Street, Cebu City 6000 Philippines",0,,50,100,9:00:00,17:00:00,10.29065716,123.8644892,1-2 hours,0,1,0,1,0,0,0,"/location_images/Jumalon_Butterfly_Sanctuary_And_Art_Gallery/Jumalon_Butterfly_Sanctuary__wN8tuzl.jpg,/location_images/Jumalon_Butterfly_Sanctuary_And_Art_Gallery/Jumalon_Butterfly_Sanctuary__aUkGspC.jpg",,,,,"The Jumalon Butterfly Sanctuary and Art Gallery in Cebu is a truly enchanting destination that seamlessly blends nature and art. This unique attraction is home to a thriving butterfly sanctuary, where visitors can witness the colorful and delicate creatures in their natural habitat. As you wander through the sanctuary, you'll be surrounded by a kaleidoscope of fluttering butterflies, creating a serene and magical atmosphere.

In addition to the butterfly sanctuary, the Jumalon facility houses an art gallery showcasing the works of the late Prof. Julian Jumalon, a skilled artist and butterfly enthusiast. The gallery features a remarkable collection of artworks created using butterfly wings, showcasing the artist's creative talent and dedication to conservation."
Heritage of Cebu Monument,"Sikatuna St, Cebu City, 6000 Cebu",0,0,,,0:00:00,0:00:00,10.29887189,123.9036403,1-2 hours,1,0,0,0,0,0,0,"/location_images/Heritage_of_Cebu_Monument/Heritage_of_Cebu_Monument.jpg,/location_images/Heritage_of_Cebu_Monument/Heritage_of_Cebu_Monument_qg6m2I0.jpg",,,,,"The Heritage of Cebu Monument stands as a striking tribute to the rich history and culture of Cebu City. Located in the heart of the city, this impressive monument is a visual narrative of significant events and personalities that have shaped Cebu's identity. Intricately sculpted and beautifully crafted, the monument's sculptures and artwork depict key historical moments, from the arrival of Ferdinand Magellan to the city's role as a hub of trade and culture.

As you stroll around the Heritage of Cebu Monument, you'll be immersed in a captivating storytelling experience, surrounded by skillfully crafted figures and scenes that transport you through time. It's not just a work of art but also an educational and historical landmark, making it a must-visit destination for anyone interested in Cebu's vibrant heritage and the pivotal role it has played in Philippine history."
Kabang Falls (Budlaan Falls),"Apas, Cebu City, 6000 Cebu",0,0,,,0:00:00,23:59:59,10.38679093,123.8834885,1-3 hours,0,1,0,0,1,0,0,/location_images/Kabang_Falls_(Budlaan_Falls)/Kabang_Falls_Budlaan_Falls.jpg,,,,,"Kabang Falls, also known as Budlaan Falls, is a hidden gem nestled amidst the lush mountains of Cebu, Philippines. This natural wonder offers a refreshing escape from the urban hustle and bustle, making it a beloved spot for hikers and nature enthusiasts. The falls are characterized by cascading water over rocky terrain into cool, crystal-clear pools, creating an inviting oasis amid the verdant surroundings.

To reach Kabang Falls, adventurers embark on a scenic hike through pristine forests, traversing rugged trails and crossing streams. The journey itself is an exhilarating experience that rewards visitors with the serenity and natural beauty of the falls at the end. "
Cebu Happy World Museum,"Lot 2-A-3, Brgy. Gabi, Cordova, 6007",0,,250,350,9:00:00,20:00:00,10.26156886,123.9591311,1-2 hours,0,0,0,1,0,1,0,"/location_images/Cebu_Happy_World_Museum/Cebu_Happy_World_Museum.jpg,/location_images/Cebu_Happy_World_Museum/Cebu_Happy_World_Museum_lhdgX50.jpg,/location_images/Cebu_Happy_World_Museum/Cebu_Happy_World_Museum_RJZQBlS.jpg",,,,,"Cebu Happy World Museum is a delightful and quirky museum in Cebu City that promises a unique and interactive experience. Inside this museum, visitors encounter a world of optical illusions, 3D art, and whimsical exhibits designed to engage the imagination and create memorable photo opportunities. It's a place where you can step into fantastical scenes, interact with art installations, and become a part of the creative illusions, making it a fun and entertaining destination for families, friends, and anyone seeking a lighthearted and visually captivating adventure in Cebu."
Bagacay Point Lighthouse,"Liloan, 6002 Cebu",0,0,,,0:00:00,0:00:00,10.38332975,124.0185096,< 1 hour,1,0,0,0,0,0,0,/location_images/Bagacay_Point_Lighthouse/Bagacay_Point_Lighthouse.jpg,,,,,"The Bagacay Point Lighthouse in Cebu is a picturesque coastal landmark that offers stunning views of the surrounding seascape. This historic lighthouse stands tall against the backdrop of the azure waters of the Cebu Strait. Its prominent position on the coast not only serves as a navigational aid but also makes it a captivating spot for sightseeing and photography.

Visitors to the Bagacay Point Lighthouse can soak in the coastal breeze, enjoy panoramic vistas of the ocean, and relish the serene atmosphere. Whether you're a photography enthusiast or simply seeking a tranquil spot to appreciate the natural beauty of Cebu's coastline, the Bagacay Point Lighthouse is a must-visit destination that combines maritime history with scenic charm."
Cebu Metropolitan Cathedral,"6000 Mabini St, Cebu City, 6000 Cebu",0,0,,,8:00:00,17:00:00,10.29557509,123.9029957,1-2 hours,1,0,1,0,0,0,1,"/location_images/Cebu_Metropolitan_Cathedral/Cebu_Metropolitan_Cathedral.jpg,/location_images/Cebu_Metropolitan_Cathedral/Cebu_Metropolitan_Cathedral_yKdrFaU.jpg",,,,,"The Cebu Metropolitan Cathedral, often referred to as the Cebu Cathedral, is a stunning religious landmark located in the heart of Cebu City. This magnificent church stands as a symbol of the city's deep-rooted spirituality and rich history. With its impressive Gothic-inspired architecture and serene ambiance, it provides a serene space for worship, reflection, and cultural appreciation.

Visitors to the Cebu Metropolitan Cathedral can marvel at its intricate facade, towering spires, and beautifully adorned interiors. Whether you're a devout Catholic attending mass or simply interested in exploring Cebu's spiritual heritage, this cathedral offers a tranquil and historically significant destination in the bustling urban landscape of Cebu City."
D' Family Park,"M. Cuenco Ave., Talamban 6000 Cebu City, Philippines",0,,10,85,5:00:00,19:00:00,10.35850376,123.9107685,2-3 hours,0,0,0,0,1,1,0,/location_images/D'_Family_Park/D_Family_Park.png,,,,,"D' Family Park is a wonderful family-friendly destination situated in the vibrant city of Cebu. It offers a delightful escape from the hustle and bustle of urban life, making it an ideal spot for families and friends to unwind and enjoy quality time together. The park's lush green surroundings create a serene atmosphere, perfect for picnics, leisurely strolls, and outdoor recreation.

D' Family Park features a range of amenities and activities to cater to visitors of all ages. Children can have a blast in the playground, while families can bond over a game of mini-golf or other recreational options. With its friendly and welcoming ambiance, D' Family Park provides a relaxed setting for gatherings and celebrations, making it a favored spot for Cebuano families looking for a peaceful and enjoyable day out."
Crocolandia ,"Burgos St, Talisay, 6045 Cebu",0,,150,200,8:00:00,17:00:00,10.24649799,123.8339545,-,0,0,0,0,1,1,0,"/location_images/Crocolandia_/Crocolandia_.jpg,/location_images/Crocolandia_/Crocolandia__uGKxQAz.jpg",,,,,"Crocolandia, located in Cebu, is an exciting wildlife sanctuary that promises an up-close encounter with some of the region's most fascinating reptilian residents. This unique attraction offers an educational and thrilling experience for nature enthusiasts of all ages. Visitors can explore the sanctuary's well-maintained grounds and learn about various reptile species, including crocodiles, turtles, and snakes, in a safe and controlled environment.

One of the highlights of Crocolandia is the opportunity to observe these remarkable creatures up close, gaining insights into their behavior, habitats, and conservation efforts. The sanctuary also conducts educational programs and interactive presentations, making it an excellent place for families and school groups to learn about Cebu's diverse wildlife."
Sirao Garden,"Cebu City, 6000 Cebu",0,,80,100,8:00:00,18:00:00,10.40673627,123.86679,< 1 hour,0,1,0,0,0,0,0,"/location_images/Sirao_Garden/Sirao_Garden.jpg,/location_images/Sirao_Garden/Sirao_Garden_iFDkRYQ.jpg",,,,,"Sirao Garden, often referred to as the ""Little Amsterdam of Cebu,"" is a picturesque and colorful garden located in the mountainous region of Cebu, Philippines. This enchanting destination is celebrated for its stunning displays of vibrant flowers and whimsical sculptures, making it a popular spot for both nature lovers and photography enthusiasts.

As you wander through Sirao Garden, you'll be greeted by a breathtaking array of blossoms in various colors, creating a feast for the eyes. The garden is especially renowned for its fields of celosia flowers, which resemble vibrant plumes in shades of red, orange, and yellow. "
Millennium Park,"Marcelo Fernan Bridge, Lapu-Lapu City, 6015 Cebu",0,0,,,0:00:00,23:59:59,10.32489373,123.9680928,< 1 hour,0,0,0,0,1,1,0,"/location_images/Millennium_Park/Millennium_Park.jpg,/location_images/Millennium_Park/Millennium_Park_m9yDGx9.jpg",,,,,"Millennium Park, located in Cebu City, is a serene and picturesque urban oasis that provides a welcome escape from the bustling city life. This park is designed to commemorate the turn of the millennium and serves as a peaceful retreat where visitors can relax, enjoy the outdoors, and appreciate the beauty of nature amid the urban landscape.

The park features a tranquil lake at its center, surrounded by lush greenery and well-maintained gardens. Visitors can take leisurely strolls along paved pathways, have picnics on the well-manicured lawns, or simply sit by the lake and soak in the serene ambiance. Millennium Park offers a serene and scenic environment, making it an ideal spot for a quiet afternoon, a romantic outing, or a peaceful break from the city's hustle and bustle."
Kawasan Falls,"Bayan ng Alegria, Lalawigan ng Cebu",0,,20,40,0:00:00,23:59:59,9.803498766,123.374333,2-3 hours,0,1,0,0,1,0,0,"/location_images/Kawasan_Falls/Kawasan_Falls.jpg,/location_images/Kawasan_Falls/Kawasan_Falls_XgkqAu7.jpg",,,,,"Kawasan Falls is a breathtaking natural wonder nestled in the lush greenery of Badian, Cebu. It's one of the most iconic waterfalls in the Philippines and a popular destination for both nature enthusiasts and adventure seekers. What sets Kawasan Falls apart is its mesmerizing turquoise waters and the serene natural surroundings that create a captivating oasis.

Visitors to Kawasan Falls can enjoy a refreshing dip in the cool, crystal-clear pools beneath the cascading waterfalls. The main falls, with its multi-tiered drop, is a sight to behold and a favorite spot for swimmers and photographers alike. For the more adventurous, there's the option of canyoneering, where you can hike, climb, and even cliff dive through the scenic canyons surrounding the falls."
Terrazas de Flores Botanical Garden,"Cebu Transcentral Highway 6000 Malubog, Philippines",0,100,,,7:00:00,22:00:00,10.37905442,123.8686863,2-3 hours,0,1,0,0,0,0,0,"/location_images/Terrazas_de_Flores_Botanical_Garden/Terrazas_de_Flores_Botanical_Garden.jpg,/location_images/Terrazas_de_Flores_Botanical_Garden/Terrazas_de_Flores_Botanical_Garden_vgQSGsW.jpg",,,,,"Terrazas de Flores Botanical Garden is a hidden gem located in the picturesque mountains of Cebu, Philippines. This enchanting garden offers a serene and immersive experience for nature enthusiasts and those seeking tranquility in a lush and vibrant environment.

As you explore Terrazas de Flores, you'll encounter a rich tapestry of plants, flowers, and foliage from various regions. The garden is meticulously landscaped, featuring terraced levels that showcase a stunning array of colorful blooms. Each terrace is uniquely themed, allowing visitors to wander through different garden settings, from exotic orchids to aromatic herbs and tropical flora."
Genesis Valley,"Cabangahan, Consolacion, 6001 Lalawigan ng Cebu",0,,150,200,8:00:00,17:00:00,10.40137402,123.9317047,-,0,0,0,0,1,0,0,/location_images/Genesis_Valley/Genesis_Valley.jpg,,,,,"Genesis Valley is a tranquil and scenic retreat located amidst the natural beauty of Cebu's mountains. This serene destination offers a peaceful escape from the hustle and bustle of urban life, making it an ideal spot for those seeking relaxation, meditation, and a closer connection with nature.

The grounds of Genesis Valley are adorned with lush greenery, picturesque lakes, and forested areas that create a soothing and rejuvenating atmosphere. Visitors can take leisurely walks along well-maintained trails, have picnics by the lakeside, or simply unwind in the midst of nature's splendor. The serene ambiance and serene surroundings make it a favored location for yoga and meditation retreats, offering a tranquil space for introspection and relaxation."
Cebu Ocean Park,"SM Seaside Complex, F. Vestil St, Cebu City, Cebu",0,550,,,10:00:00,18:00:00,10.281376,123.8785156,2-3 hours,0,1,0,0,0,1,0,"/location_images/Cebu_Ocean_Park/Cebu_Ocean_Park.jpg,/location_images/Cebu_Ocean_Park/Cebu_Ocean_Park_MRjSHf0.jpg,/location_images/Cebu_Ocean_Park/Cebu_Ocean_Park_pJ7aA4L.jpg",,,,,"Cebu Ocean Park is a captivating marine attraction located in Cebu City, Philippines. It is a world-class aquatic destination that allows visitors to explore the wonders of the underwater realm and get up close to a diverse range of marine life from the Philippines and around the world.

The park offers a variety of immersive experiences, including underwater tunnels that provide stunning views of sea creatures swimming overhead, interactive touch pools where you can interact with marine animals, and engaging educational exhibits that highlight the importance of marine conservation. Cebu Ocean Park is not only an entertaining destination but also an educational one, offering insights into the rich marine biodiversity of the Philippines and the need to protect and preserve these precious ecosystems."
Carmelite Monastery,"Pope John Paul II Avenue, Mabolo 6000 Cebu City, Philippines",0,0,,,5:30:00,18:00:00,10.31872802,123.9114729,1-2 hours,0,0,1,0,0,0,0,/location_images/Carmelite_Monastery/Carmelite_Monastery.jpg,,,,,"The Carmelite Monastery in Cebu is a serene and spiritually significant destination nestled atop a hill in the city. This peaceful retreat offers visitors a tranquil escape from the noise and busyness of everyday life, making it a favored spot for those seeking solitude, reflection, and a closer connection with their faith.

The monastery is known for its breathtaking panoramic views of Cebu City and the surrounding landscapes. It's a place where visitors can take in the beauty of the natural environment and find moments of serenity while enjoying the quietude of the hilltop setting."
Virgen de la Regla National Shrine,"B.M. Dimataga St., Poblacion 6015 Lapu-Lapu City, Philippines",0,0,,,0:00:00,23:59:59,10.312532,123.9486724,-,0,0,1,0,0,0,1,/location_images/Virgen_de_la_Regla_National_Shrine/Virgen_de_la_Regla_National_Shrine.jpg,,,,,"The Virgen de la Regla National Shrine is a revered religious site located in Lapu-Lapu City, Cebu, Philippines. This shrine is dedicated to the Virgen de la Regla, who is the patroness of sailors and a highly venerated figure in Filipino Catholicism. It holds significant religious and cultural importance for the local community and pilgrims from around the country.

The shrine features a beautifully designed church where devotees and visitors can attend religious services, offer prayers, and seek spiritual solace. The image of the Virgen de la Regla is prominently displayed, and the shrine often hosts religious processions and festivities in her honor, especially during her feast day in November."
Buwakan ni Alejandra,"Sitio Bunga Barangay, Balamban, 6041 Cebu",0,,75,100,7:00:00,17:30:00,10.43054061,123.7761233,1-2 hours,0,1,0,0,0,0,0,"/location_images/Buwakan_ni_Alejandra/Buwakan_ni_Alejandra.jpg,/location_images/Buwakan_ni_Alejandra/Buwakan_ni_Alejandra_GESQ9gc.jpg",,,,,"Buwakan ni Alejandra is a captivating garden paradise located in Balamban, Cebu, Philippines. This enchanting destination is celebrated for its lush landscapes and vibrant displays of flora, making it a favorite spot for nature enthusiasts, botany aficionados, and anyone seeking a serene escape into a world of blossoms.

The garden is a tapestry of colorful blooms, fragrant flowers, and exotic plants that span across terraced levels. Visitors can stroll along well-manicured pathways, each leading to different garden sections, including themed areas like the Japanese Garden and the European Garden. Buwakan ni Alejandra provides a unique opportunity to immerse yourself in a stunning array of flowers, from delicate orchids to tropical blooms, creating a sensory delight for nature lovers and photographers."
Tumalog Falls,"Brgy Natalio Bacalso Avenue, Oslob, Cebu",0,,20,50,7:00:00,16:00:00,9.48600603,123.3696317,1-3 hours,0,1,0,0,1,0,0,"/location_images/Tumalog_Falls/Tumalog_Falls.jpg,/location_images/Tumalog_Falls/Tumalog_Falls_wpkmGjX.jpg",,,,,"Tumalog Falls, also known as ""Toslob Falls,"" is a mesmerizing waterfall tucked away in the lush mountains of Oslob, Cebu, Philippines. This natural wonder is renowned for its ethereal beauty, characterized by delicate, cascading veils of water that resemble a curtain of fine threads, creating a dreamy and enchanting atmosphere.

One of the unique features of Tumalog Falls is its narrow, almost fairy-tale-like appearance as the water gracefully descends from the rocky cliffs above. The falls form a natural pool at its base, inviting visitors to take a refreshing dip in its cool, crystal-clear waters. The serene surroundings, combined with the soothing sound of the falling water, make it a peaceful oasis where you can relax and immerse yourself in the beauty of nature."
Bluewater Resort Sumilon Island,"Sumilon Island, Cebu",0,,1000,2500,8:00:00,16:00:00,9.433597837,123.3906558,2 hours,0,1,0,0,1,1,0,"/location_images/Bluewater_Resort_Sumilon_Island/Bluewater_Resort_Sumilon_Island.jpg,/location_images/Bluewater_Resort_Sumilon_Island/Bluewater_Resort_Sumilon_Island_zlOP4As.jpg",,,,,"Bluewater Resort Sumilon Island is a luxurious and idyllic island getaway located on Sumilon Island, situated off the southeastern coast of Cebu, Philippines. This stunning resort offers a secluded paradise where guests can escape the pressures of daily life and immerse themselves in the beauty of nature and the tranquility of the surrounding seascape.

Sumilon Island is known for its pristine beaches, crystal-clear waters, and lush tropical landscapes, making it the perfect setting for a tropical retreat. The Bluewater Resort on the island offers comfortable accommodations, including elegant villas and cottages that provide picturesque views of the sea or the island's lush greenery."
Sumilon Island Sandbar,"Sumilon Island, Cebu",0,50,,,8:00:00,16:00:00,9.43406608,123.3867783,2 hours,0,1,0,0,1,1,0,"/location_images/Sumilon_Island_Sandbar/Sumilon_Island_Sandbar.jpg,/location_images/Sumilon_Island_Sandbar/Sumilon_Island_Sandbar_Vw5yZJh.jpg",,,,,"Sumilon Island Sandbar, located on Sumilon Island in Cebu, Philippines, is a natural wonder and a paradise for beach lovers. This stunning sandbar emerges during low tide, creating a long, narrow strip of soft, powdery white sand surrounded by crystal-clear turquoise waters. It's a picturesque destination that offers a unique and surreal experience.

The Sumilon Island Sandbar is the perfect spot for leisurely walks, sunbathing, and enjoying the serene beauty of the surrounding sea. You can wade through shallow waters to reach the sandbar, which is often referred to as a ""sandspit,"" and explore its pristine expanse."
Canyoneering Cebu Badian Adventure,"Badian, Cebu Alegria, Cebu City, 6000 Cebu",0,1500,,,6:30:00,14:00:00,9.812390572,123.3683351,4–5 hours,0,0,0,0,1,1,0,"/location_images/Canyoneering_Cebu_Badian_Adventure/Canyoneering_Cebu_Badian_Adventure.jpg,/location_images/Canyoneering_Cebu_Badian_Adventure/Canyoneering_Cebu_Badian_Adventure_xlTpbBW.jpg",,,,,"Canyoneering Cebu Badian Adventure is an exhilarating and adrenaline-pumping outdoor activity that takes place in the stunning canyons and rivers of Badian, Cebu, Philippines. It's an adventure seekers' dream come true, offering an unforgettable journey through natural landscapes characterized by cascading waterfalls, crystal-clear pools, and dramatic cliffs.

The canyoneering adventure typically involves hiking, cliff jumping, rappelling, and swimming through the canyons and waterways. Participants navigate their way through the rugged terrain, following the flow of the river, and leaping off cliffs into the refreshing pools below."
Oslob Whale Shark Watching,"Natalio Bacalso Avenue, Oslob, 6023 Cebu",0,,500,1000,6:00:00,11:00:00,9.463361151,123.379734,30 minutes - 1 hour,0,1,0,0,1,1,0,"/location_images/Oslob_Whale_Shark_Watching/Oslob_Whale_Shark_Watching.jpg,/location_images/Oslob_Whale_Shark_Watching/Oslob_Whale_Shark_Watching_lUrlBTs.jpg",,,,,"Oslob Whale Shark Watching is a popular eco-tourism activity located in Oslob, a coastal town in Cebu, Philippines. It provides visitors with a unique opportunity to encounter and swim with the world's largest fish, the gentle whale shark (known locally as ""butanding""). This activity has gained international acclaim and is a thrilling and educational experience for nature enthusiasts and wildlife lovers.

The whale sharks in Oslob are known for their frequent appearances in the warm waters off the coast, particularly between December and April. Visitors are taken out on boats to designated areas where they can observe these magnificent creatures up close. Snorkeling alongside these gentle giants is a truly awe-inspiring experience as you witness their enormous size and graceful movements underwater."
La Vie in the Sky,"Tops Road, Cebu City, 6000 Cebu",0,100,,,7:00:00,2:00:00,10.37268207,123.8707757,-,0,1,0,0,0,1,0,"/location_images/La_Vie_in_the_Sky/La_Vie_in_the_Sky.jpg,/location_images/La_Vie_in_the_Sky/La_Vie_in_the_Sky_aEaRJvx.jpg",,,,,"La Vie in the Sky is a delightful rooftop restaurant and bar located in Cebu City, Philippines. Perched high above the city's skyline, this charming establishment offers guests a stunning panoramic view of the bustling metropolis while providing a relaxing and elegant atmosphere for dining and socializing.

As you ascend to La Vie in the Sky, you'll be greeted by a stylish and contemporary interior that seamlessly blends with the outdoor terrace. The terrace is the highlight of the venue, where you can enjoy open-air dining while taking in breathtaking vistas of the city, especially during sunset and in the evening when Cebu's city lights come to life.

The menu at La Vie in the Sky features a delectable array of dishes, including both international and Filipino cuisine, as well as a well-curated selection of wines and cocktails."
Tops Lookout,"Tops Road, Cebu City, 6000 Cebu",1,0,,,0:00:00,23:59:59,10.37061619,123.870872,1-2 hours,0,1,0,0,0,1,0,"/location_images/Tops_Lookout/Tops_Lookout.jpg,/location_images/Tops_Lookout/Tops_Lookout_tdrmh9A.jpg,/location_images/Tops_Lookout/Tops_Lookout_YZbfopo.jpg",,,,,"Tops Lookout, often referred to simply as ""Tops,"" is a scenic viewpoint nestled high in the mountains of Cebu City, Philippines. This popular vantage point provides visitors with breathtaking panoramic views of the city below, making it a must-visit destination for tourists and locals alike.

To reach Tops Lookout, you'll embark on a winding journey through lush forests and scenic roads that lead to the mountain's summit. Once you arrive, you'll be rewarded with stunning vistas of Cebu City, the neighboring islands, and the surrounding landscapes. The viewpoint is especially popular during sunrise and sunset when the city's lights twinkle in the evening or when the golden rays of the sun bathe the scenery in a warm glow."
Simala Shrine (Monastery of the Holy Eucharist),"Sibonga, Cebu",0,0,,,8:00:00,20:00:00,9.979448786,123.5996654,1-2 hours,1,0,1,0,0,0,1,"/location_images/Simala_Shrine_(Monastery_of_the_Holy_Eucharist)/Simala_Shrine_Monastery__teE6zpM.jpg,/location_images/Simala_Shrine_(Monastery_of_the_Holy_Eucharist)/Simala_Shrine_Monastery__W5pnSxM.jpg,/location_images/Simala_Shrine_(Monastery_of_the_Holy_Eucharist)/Simala_Shrine_Monastery__ZMiTLeJ.jpg",,,,,"Simala Shrine, officially known as the Monastery of the Holy Eucharist, is a renowned religious pilgrimage site located in Sibonga, Cebu, Philippines. This majestic and awe-inspiring sanctuary is dedicated to the veneration of the Blessed Virgin Mary and is known for its stunning architecture, religious significance, and the numerous miraculous events associated with it.

The shrine's architectural design is reminiscent of a medieval European castle, complete with intricate details, spires, and grand archways. Inside, visitors can find a richly adorned chapel that houses a replica of the miraculous image of the Virgin Mary. "
Alegre Guitar Factory,"Pajac-Maribago Rd, Lapu-Lapu City, Cebu",0,0,,,8:00:00,18:00:00,10.29407279,123.9877251,< 1 hour,1,0,0,0,0,0,1,"/location_images/Alegre_Guitar_Factory/Alegre_Guitar_Factory.jpg,/location_images/Alegre_Guitar_Factory/Alegre_Guitar_Factory_eG54ktD.jpg",,,,,"The Alegre Guitar Factory is a renowned and historic guitar-making workshop located in Mactan Island, Cebu, Philippines. This establishment has gained international recognition for its craftsmanship and the high-quality guitars it produces, particularly classical and acoustic guitars.

Visiting the Alegre Guitar Factory provides a unique opportunity to witness the intricate process of crafting guitars by skilled artisans. Visitors can observe craftsmen meticulously shaping, assembling, and finishing guitars using traditional techniques handed down through generations. It's a fascinating glimpse into the artistry and dedication that go into creating these musical instruments."
Sachiko's Little Kyoto,"Sitio Lamacan, Babag Uno 6000 Cebu City, Philippines",0,100,,,8:00:00,20:00:00,10.37128679,123.8552826,1-2 hours,0,1,0,0,0,1,0,"/location_images/Sachiko's_Little_Kyoto/Sachikos_Little_Kyoto.jpg,/location_images/Sachiko's_Little_Kyoto/Sachikos_Little_Kyoto_fejrgjb.jpg",,,,,"Sachiko's Little Kyoto is a charming and culturally immersive destination located in Cebu City, Philippines. This unique establishment offers a taste of traditional Japanese culture and aesthetics, allowing visitors to step into a serene and authentic Japanese garden setting.

The centerpiece of Sachiko's Little Kyoto is its beautifully landscaped Japanese garden, complete with manicured trees, koi ponds, stone lanterns, and meandering pathways. It's a peaceful oasis that provides a tranquil escape from the urban environment of Cebu City. The garden is designed to reflect the essence of Kyoto, Japan's historical and cultural heart, and it offers a serene atmosphere for relaxation and contemplation."
Adventure Cafe and Zipline,"Brgy Gaas, Balamban, Cebu",0,,5,205,8:00:00,17:00:00,10.42974261,123.7756562,-,0,0,0,0,1,1,0,/location_images/Adventure_Cafe_and_Zipline/Adventure_Cafe_and_Zipline.jpg,,,,,"Adventure Cafe and Zipline is an exciting adventure destination located in the mountainous terrain of Cebu, Philippines. This unique establishment combines the thrill of outdoor activities with a cozy cafe atmosphere, making it a popular spot for adrenaline junkies and those looking to enjoy a memorable day in nature.

One of the main attractions at Adventure Cafe is the zipline experience. Visitors can soar through the treetops and take in panoramic views of the lush landscape below as they glide along the ziplines. It's an exhilarating adventure that offers a bird's-eye perspective of the surrounding mountains and forests."
Chapel of San Pedro Calungsod,"Church Ave., SM Seaside Complex, Cebu City, Cebu",0,0,,,9:30:00,17:00:00,10.28179911,123.8778243,1-2 hours,0,0,1,0,0,0,0,/location_images/Chapel_of_San_Pedro_Calungsod/Chapel_of_San_Pedro_Calungsod.jpg,,,,,"The Chapel of San Pedro Calungsod, also known as the San Pedro Calungsod Shrine, is a significant religious site located in Cebu City, Philippines. This modern and architecturally stunning chapel is dedicated to San Pedro Calungsod, a Filipino martyr and Catholic saint who was canonized in 2012.

The chapel's design is contemporary and features a unique blend of Filipino and modern architectural elements. It is characterized by a distinctive boat-shaped roof, which pays homage to Cebu's maritime heritage. The chapel's interior is serene and minimalist, providing a tranquil space for prayer and reflection."
Mountain View Nature's Park,"Cebu Transcentral Hwy, Cebu City, 6000 Cebu",0,,50,200,9:00:00,21:00:00,10.3711171,123.8742797,2-3 hours,0,0,0,0,1,1,0,"/location_images/Mountain_View_Nature's_Park/Mountain_View_Natures_Park.jpg,/location_images/Mountain_View_Nature's_Park/Mountain_View_Natures_Park_rw1TIQO.jpg",,,,,"Mountain View Nature's Park is a serene and picturesque destination located in Busay, Cebu, Philippines. This idyllic park offers visitors a peaceful retreat into nature, surrounded by lush greenery and breathtaking panoramic views of the Cebu skyline and the Mactan Channel.

The park is situated atop the cool and verdant mountains of Cebu, providing a refreshing escape from the hustle and bustle of city life. It's a place where visitors can enjoy the cool mountain breeze and the tranquility of nature while taking in spectacular vistas.

Mountain View Nature's Park features well-maintained gardens, walking trails, and vantage points where you can marvel at the stunning scenery."
Osmena Peak,"Mantalongon, Dalaguete 6022 Philippines",0,30,,,0:00:00,23:59:59,9.822499964,123.448333,1 hour 30 minutes,0,1,0,0,1,0,0,"/location_images/Osmena_Peak/Osmena_Peak.jpg,/location_images/Osmena_Peak/Osmena_Peak_Bx7mEXq.jpg,/location_images/Osmena_Peak/Osmena_Peak_XPZJ6GA.jpg",,,,,"Mountain View Nature's Park is a serene and picturesque destination located in Busay, Cebu, Philippines. This idyllic park offers visitors a peaceful retreat into nature, surrounded by lush greenery and breathtaking panoramic views of the Cebu skyline and the Mactan Channel.

The park is situated atop the cool and verdant mountains of Cebu, providing a refreshing escape from the hustle and bustle of city life. It's a place where visitors can enjoy the cool mountain breeze and the tranquility of nature while taking in spectacular vistas."
Panagsama Beach,"Moalboal, Cebu",0,,0,100,0:00:00,23:59:59,9.946423854,123.3685542,1 hour,0,1,0,0,1,0,0,"/location_images/Panagsama_Beach/Panagsama_Beach.jpg,/location_images/Panagsama_Beach/Panagsama_Beach_SzSHlq3.jpg",,,,,"Panagsama Beach, also known as ""Panglao Beach,"" is a popular coastal destination located in Panglao Island, just off the coast of Bohol, Philippines. This beach is renowned for its stunning natural beauty, clear turquoise waters, and vibrant underwater ecosystem, making it a favorite spot for beachgoers, divers, and snorkelers.

The beach is characterized by its powdery white sand, which provides a perfect backdrop for relaxation and sunbathing. Visitors can soak up the tropical sun, swim in the calm and crystal-clear waters, or engage in various water sports activities such as snorkeling and kayaking. Panagsama Beach is known for its accessibility to the colorful and diverse marine life, making it a haven for underwater enthusiasts."
White Beach Moalboal,"Moalboal, Cebu",0,,10,20,0:00:00,23:59:59,9.972218514,123.3720414,3 hours >,0,1,0,0,1,0,0,"/location_images/White_Beach_Moalboal/White_Beach_Moalboal.jpg,/location_images/White_Beach_Moalboal/White_Beach_Moalboal_HbzXZ4R.jpg",,,,,"White Beach Moalboal is a beautiful and pristine stretch of coastline located in Moalboal, Cebu, Philippines. It is renowned for its powdery white sand, crystal-clear turquoise waters, and vibrant marine life, making it a popular destination for beachgoers, divers, and snorkelers.

The beach is an idyllic spot for sunbathing, swimming, and simply relaxing by the shore. Visitors can unwind on the soft sands while enjoying the stunning views of the sea and the lush surrounding greenery. The calm and clear waters of White Beach are perfect for snorkeling, and the nearby coral reefs teem with colorful fish and other marine species."
Pescador Island,Pescador Island,0,100,,,0:00:00,23:59:59,9.923230709,123.3434683,2 hours,0,1,0,0,1,0,0,"/location_images/Pescador_Island/Pescador_Island.jpg,/location_images/Pescador_Island/Pescador_Island_pMVxvdV.jpg,/location_images/Pescador_Island/Pescador_Island_2UCMrhz.jpg",,,,,"Pescador Island is a renowned diving and snorkeling destination located near Moalboal in Cebu, Philippines. This small and uninhabited island is a haven for underwater enthusiasts and nature lovers, known for its exceptional marine biodiversity and stunning underwater landscapes.

One of the main attractions at Pescador Island is its vibrant coral reefs, which are teeming with a wide variety of marine life. Divers and snorkelers flock to the island to explore its crystal-clear waters and encounter a wealth of underwater species, including colorful coral formations, tropical fish, sea turtles, and even larger creatures like barracudas and sardines."
Tingko Beach,"Alcoy, Cebu",0,,10,1000,0:00:00,23:59:59,9.681884417,123.5030218,2-3 hours,0,1,0,0,1,0,0,"/location_images/Tingko_Beach/Tingko_Beach.jpg,/location_images/Tingko_Beach/Tingko_Beach_VZ7v302.jpg",,,,,"Tingko Beach, located in Alcoy, Cebu, is a popular and picturesque beach destination known for its stunning white sand, crystal-clear waters, and relaxed atmosphere. It is often considered one of the most beautiful beaches on Cebu Island, making it a favorite spot for beachgoers and tourists looking to unwind in a tropical paradise.

Tingko Beach boasts a wide and inviting shoreline, where visitors can bask in the sun, build sandcastles, or take leisurely walks along the powdery white sands. The waters are calm and ideal for swimming, making it a safe and enjoyable beach experience for families and travelers of all ages."
10000 Roses Cafe,"Day-as Barangay Rd, Cordova, Cebu",0,20,,,14:00:00,22:00:00,10.25667471,123.9323656,-,0,1,0,0,0,1,0,/location_images/10000_Roses_Cafe/10000_Roses_Cafe.jpg,,,,,"The 10,000 Roses Cafe is a captivating and Instagram-worthy destination located in Cordova, Cebu, Philippines. This unique café is famous for its enchanting field of illuminated artificial roses, creating a mesmerizing and dreamlike ambiance, especially in the evening.

The centerpiece of the café is a vast field filled with thousands of white artificial roses, each adorned with LED lights. As day turns to night, the LED lights come alive, illuminating the roses and creating a stunning display that resembles a field of glowing stars. This makes the 10,000 Roses Cafe a popular spot for romantic evenings, photography enthusiasts, and couples seeking a picturesque setting."
Teofilo Camomot Shrine,"Carcar City, Cebu",0,0,,,8:00:00,16:30:00,10.10321198,123.6581503,-,0,0,1,0,0,0,0,"/location_images/Teofilo_Camomot_Shrine/Teofilo_Camomot_Shrine.jpg,/location_images/Teofilo_Camomot_Shrine/Teofilo_Camomot_Shrine_FJVOyxW.jpg",,,,,"The Teofilo Camomot Shrine is a significant religious site located in the town of Carcar in Cebu, Philippines. It is dedicated to the memory of Archbishop Teofilo Camomot, a highly esteemed and beloved figure in the Catholic Church, known for his acts of charity and holiness.

The shrine is a place of pilgrimage and devotion for Catholics who come to pay their respects to Archbishop Camomot. It houses his tomb and relics, making it a place of reverence and reflection. Visitors can offer prayers, light candles, and seek spiritual solace at the shrine."
Theotokos Shrine,"Natalio B. Bacalso S National Hwy, Carcar City, Cebu",0,0,,,6:00:00,16:00:00,10.11622865,123.6738466,-,0,0,1,0,0,0,0,/location_images/Theotokos_Shrine/Theotokos_Shrine.jpg,,,,,"The Theotokos Shrine, also known as the Our Lady of the Rule Parish and Shrine of the Theotokos, is a significant religious site located in Lapu-Lapu City, Mactan Island, Cebu, Philippines. It is dedicated to the veneration of the Blessed Virgin Mary, particularly under her title as the ""Our Lady of the Rule.""

The shrine is known for its striking and modern architecture, featuring a towering statue of the Virgin Mary holding the Child Jesus. The image is perched atop a massive pedestal overlooking the sea, creating a picturesque and serene setting. Pilgrims and devotees often visit the shrine to offer prayers, light candles, and seek the intercession of the Blessed Virgin Mary."
Sky Experience Adventure,"Osmeña Blvd, Cebu City, 6000 Cebu",1,250,,,14:00:00,0:00:00,10.30786628,123.8941179,-,0,0,0,0,1,1,0,"/location_images/Sky_Experience_Adventure/Sky_Experience_Adventure.jpg,/location_images/Sky_Experience_Adventure/Sky_Experience_Adventure_uOmuM97.jpg",,,,,"Sky Experience Adventure, also known as ""Crown Regency Sky Experience Adventure,"" is an exhilarating and adventurous attraction located in Cebu City, Philippines. Situated atop the Crown Regency Hotel and Towers, this unique attraction offers visitors an array of thrilling experiences and stunning panoramic views of the city.

One of the main attractions at Sky Experience Adventure is the Skywalk Extreme, which allows brave participants to walk on a transparent glass pathway encircling the outer edge of the hotel's 37th floor. As you take each step, you'll feel like you're walking on air, and the view of the city below is nothing short of breathtaking."
Nalusuan Island,"Cordova Reef, Cordova 6000 Philippines",0,400,,,6:00:00,20:00:00,10.19074508,124.0003623,1-2 hours,0,1,0,0,1,0,0,"/location_images/Nalusuan_Island/Nalusuan_Island.jpg,/location_images/Nalusuan_Island/Nalusuan_Island_UAkEpoZ.jpg",,,,,"Nalusuan Island is a beautiful tropical paradise located in the Olango Reef, near Mactan Island in Cebu, Philippines. This idyllic island is a popular destination for tourists, divers, and snorkelers due to its stunning coral reefs, crystal-clear waters, and abundant marine life.

The island is known for its pristine white sandy beaches, making it an ideal spot for sunbathing, beachcombing, and swimming. Visitors can relax on the shores, take leisurely walks, and enjoy the serene ambiance of this small, tranquil island."
Hilutongan Island (Gilutongan Island),"Cordova Reef, Cordova 6000 Philippines",0,,100,300,0:00:00,23:59:59,10.20675372,123.9900088,1 hour,0,1,0,0,1,0,0,/location_images/Hilutongan_Island_(Gilutongan_Island)/Hilutongan_Island_Gilutongan_Island.jpg,,,,,"Hilutungan Island, also known as Gilutongan Island, is a stunning tropical island situated in the waters of the Olango Reef, near Mactan Island in Cebu, Philippines. This picturesque island is renowned for its clear turquoise waters, vibrant coral reefs, and diverse marine life, making it a popular destination for snorkeling, diving, and beach-related activities.

The island offers visitors the opportunity to explore its vibrant underwater world. Snorkelers and divers can immerse themselves in the crystal-clear waters and discover the colorful coral gardens that surround the island. These reefs are home to a rich variety of marine species, including schools of fish, sea turtles, and an array of underwater creatures."
Caohagan Island,"Lapu-Lapu City, Cebu",0,,200,300,0:00:00,23:59:59,10.20388762,124.0177052,1 hour,0,1,0,0,1,0,0,"/location_images/Caohagan_Island/Caohagan_Island.jpg,/location_images/Caohagan_Island/Caohagan_Island_NtXALg1.jpg",,,,,"Caohagan Island is a charming and tranquil tropical island located near Mactan Island in Cebu, Philippines. It is one of the smaller islands in the Olango Reef, known for its serene ambiance, pristine beaches, and crystal-clear waters.

The island offers a secluded and peaceful escape for visitors who want to unwind in a natural paradise. Its white sandy beaches are perfect for sunbathing, beachcombing, and leisurely walks along the shore. Caohagan Island's waters are shallow and calm, making it an excellent spot for swimming and snorkeling."
Taboan Public Market,"Cebu City, 6000 Cebu",0,0,,,4:00:00,19:00:00,10.29556248,123.8914812,-,0,0,0,0,1,0,1,"/location_images/Taboan_Public_Market/Taboan_Public_Market.jpg,/location_images/Taboan_Public_Market/Taboan_Public_Market_8JGc1wS.jpg",,,,,"Taboan Public Market is a bustling and vibrant marketplace located in Cebu City, Philippines. This market is renowned for being the go-to destination for anyone seeking dried fish and other preserved seafood products, making it a must-visit for food enthusiasts and tourists exploring Cebu's culinary scene.

The market is a sensory delight, with rows of stalls and vendors offering an extensive variety of dried seafood, including dried fish, squid, danggit (rabbitfish), dried shrimp, and more. These products are often seasoned and sun-dried to perfection, creating unique and flavorful delicacies that are beloved by locals and visitors alike."
Colon Street,"Cebu City, 6000 Cebu",0,0,,,0:00:00,23:59:59,10.29674146,123.8990271,-,0,0,0,0,1,0,1,/location_images/Colon_Street/Colon_Street.jpg,,,,,"Colon Street is a historic and iconic street located in downtown Cebu City, Philippines. It is one of the oldest streets in the country and is celebrated for its rich history, vibrant atmosphere, and its role as a significant commercial and cultural hub.

Colon Street was named after Christopher Columbus (Cristobal Colón in Spanish) and was established in the early 16th century during the Spanish colonial era. It has since evolved into a bustling thoroughfare that spans approximately a kilometer in length."
Plaza Independencia,"CSCR Tunnel, Cebu City, 6000 Cebu",0,30,,,8:00:00,19:00:00,10.29318993,123.9051288,2 hours,1,0,0,0,0,0,1,/location_images/Plaza_Independencia/Plaza_Independencia.jpg,,,,,"Plaza Independencia is a historic and picturesque public square located in Cebu City, Philippines. This prominent plaza holds great significance in the country's history and serves as a popular gathering place for locals and tourists alike.

One of the notable features of Plaza Independencia is the presence of Fort San Pedro, a Spanish-era fort that dates back to the 16th century. The fort, which is located at one end of the plaza, served as a defensive structure during the Spanish colonial period. Today, it stands as a well-preserved historical site and a museum where visitors can learn about Cebu's colonial history."
Olango Islands,"Lapu-Lapu City, Cebu",0,,20,100,0:00:00,23:59:59,10.24950083,124.0376597,2-3 hours,0,1,0,0,1,0,0,"/location_images/Olango_Islands/Olango_Islands.jpg,/location_images/Olango_Islands/Olango_Islands_ctMpDVG.jpg,/location_images/Olango_Islands/Olango_Islands_bknP4Rj.jpg",,,,,"The Olango Islands is a group of islands located in the Visayan Sea, just off the eastern coast of Mactan Island in Cebu, Philippines. This stunning archipelago is known for its natural beauty, rich biodiversity, and as a critical habitat for migratory birds, making it a favorite destination for nature lovers and birdwatchers.

The Olango Islands are composed of several islands and islets, with Olango Island being the largest and most visited. The islands are surrounded by azure waters, pristine beaches, and vibrant coral reefs, making them ideal for swimming, snorkeling, and diving. Visitors can explore the underwater world and encounter a variety of marine life, including colorful fish and coral formations."
San Vicente Marine Sanctuary,"Lapu-Lapu City, Cebu",0,30,,,7:00:00,17:00:00,10.24859008,124.0228568,-,0,1,0,0,1,0,0,"/location_images/San_Vicente_Marine_Sanctuary/San_Vicente_Marine_Sanctuary.jpg,/location_images/San_Vicente_Marine_Sanctuary/San_Vicente_Marine_Sanctuary.png",,,,,"The San Vicente Marine Sanctuary is a conservation area located in Olango Island, near Mactan Island in Cebu, Philippines. This sanctuary is a haven for marine life and serves as an important protected area for preserving the underwater ecosystem and promoting sustainable tourism and fishing practices.

The primary goal of the San Vicente Marine Sanctuary is to protect and rehabilitate the coral reefs and marine biodiversity in the area. Over the years, the sanctuary has become a thriving ecosystem where coral reefs, fish species, and other marine creatures flourish. Snorkelers and divers visiting the sanctuary can witness the vibrant coral formations and an array of fish species, including colorful reef fish, damselfish, and various invertebrates."
Orchids Gallery,"National Hwy, Moalboal, Cebu",0,,20,70,8:00:00,18:00:00,9.941121798,123.3979552,1-2 hours,0,1,0,0,0,0,0,/location_images/Orchids_Gallery/Orchids_Gallery.jpg,,,,,"Orchids Gallery is a delightful and colorful attraction located in the highland barangay of Busay in Cebu City, Philippines. As the name suggests, it is a specialized garden and gallery dedicated to showcasing the beauty of orchid plants, known for their stunning and intricate blooms.

Visitors to Orchids Gallery can immerse themselves in a lush and tropical paradise filled with a wide variety of orchid species and hybrids. The garden features meticulously landscaped paths and displays that highlight the diversity of these exquisite flowers. Orchids come in an array of colors, shapes, and sizes, making this a visually captivating and aromatic experience."
SeaQuest Dive Center,"Panagsama Rd, Moalboal, 6032 Cebu",0,100,,,8:00:00,20:00:00,9.950267727,123.3657441,2-3 hours,0,1,0,0,1,0,0,"/location_images/SeaQuest_Dive_Center/SeaQuest_Dive_Center.jpg,/location_images/SeaQuest_Dive_Center/SeaQuest_Dive_Center_VxbvigU.jpg",,,,,"The SeaQuest Dive Center is a well-established diving facility located in Mactan Island, Cebu, Philippines. This dive center is renowned for its professional services, experienced dive instructors, and access to some of the best dive sites in the region.

SeaQuest Dive Center caters to divers of all levels, from beginners seeking certification to experienced divers looking for thrilling underwater adventures. The center offers a range of diving courses, including introductory courses for novices and advanced courses for those looking to enhance their skills. With safety as a top priority, certified instructors ensure that divers receive proper training and guidance."
Cambais Falls,"Alegría, Cebu",0,50,,,7:00:00,17:00:00,9.748458702,123.389276,1-2 hours,0,1,0,0,0,0,0,"/location_images/Cambais_Falls/Cambais_Falls.jpg,/location_images/Cambais_Falls/Cambais_Falls_m4pFBeh.jpg",,,,,"Cambais Falls, also known as Kabang Falls or Budlaan Falls, is a hidden gem located in the mountainous barangay of Budlaan in Cebu City, Philippines. This pristine waterfall is a natural oasis tucked away in a lush and verdant forest, making it a perfect destination for nature lovers and adventure seekers.

To reach Cambais Falls, visitors typically embark on a short trek through the scenic and serene forest trails. The journey to the falls is an adventure in itself, with opportunities to admire the natural beauty of the surrounding area, including the diverse flora and fauna."
Green Mosque,"Creekside Street, Cebu City, 6000 Cebu",0,0,,,0:00:00,23:59:59,10.30389291,123.9009976,-,0,0,1,0,0,0,1,/location_images/Green_Mosque/Green_Mosque.jpg,,,,,"The Green Mosque, officially known as the Maryam-Ul Iman Masjid, is a beautiful Islamic religious structure located in the town of Cotabato City, Philippines. This mosque is one of the most prominent and recognizable landmarks in the region, known for its striking green color and stunning architectural design.

The Green Mosque's most distinctive feature is its vibrant green exterior, which sets it apart from many other mosques in the country. The mosque's green color symbolizes the Islamic faith and is often associated with the tranquility and spirituality of the religion. The building's architecture combines modern and traditional Islamic design elements, creating a visually captivating and culturally significant structure."
Inambakan Falls,"Ginatilan, Cebu",0,50,,,0:00:00,23:59:59,9.568627615,123.3386586,1-3 hours,0,1,0,0,0,0,0,"/location_images/Inambakan_Falls/Inambakan_Falls.jpg,/location_images/Inambakan_Falls/Inambakan_Falls_mv3wXMI.jpg",,,,,"Inambakan Falls is a stunning natural waterfall located in Ginatilan, a municipality in the southwestern part of Cebu, Philippines. This majestic waterfall is a hidden gem nestled in the lush and mountainous terrain of the region, making it a popular destination for nature enthusiasts and adventure seekers.

To reach Inambakan Falls, visitors typically embark on a trek through the picturesque and serene forest. The trail to the falls offers an opportunity to immerse yourself in the natural beauty of Cebu's interior, with dense vegetation, towering trees, and the soothing sounds of flowing water along the way."
Alegria Heritage Park,"Alegría, Cebu",0,0,,,0:00:00,23:59:59,9.728419118,123.3393343,< 1 hour,0,0,0,0,0,1,1,/location_images/Alegria_Heritage_Park/Alegria_Heritage_Park.jpg,,,,,"Alegria Heritage Park, also known as ""Parke sa Alegria,"" is a charming and historically significant park located in the town of Alegria in the province of Cebu, Philippines. This park serves as a cultural and recreational space that celebrates the town's heritage and provides a serene setting for both locals and visitors.

One of the key attractions in Alegria Heritage Park is the beautifully landscaped gardens and green spaces. The park features manicured lawns, vibrant flower beds, and shaded areas with benches, creating a tranquil environment where people can relax and unwind. It's a lovely place for a leisurely stroll or a family picnic while enjoying the natural beauty of the surroundings."
Malapascua Light House,"Daanbantayan, Cebu",0,0,,,0:00:00,23:59:59,11.34320081,124.1112622,1-2 hours,1,0,0,0,0,0,1,/location_images/Malapascua_Light_House/Malapascua_Light_House.jpeg,,,,,"The Malapascua Lighthouse is an iconic landmark located on Malapascua Island, which is situated in the Visayan Sea, to the north of Cebu Island in the Philippines. This picturesque lighthouse is not only a functional navigational aid but also a popular destination for tourists seeking panoramic views and a glimpse into the island's maritime heritage.

The lighthouse stands on a scenic hill overlooking the crystal-clear waters of the Visayan Sea and the surrounding landscapes of Malapascua Island. It offers breathtaking vistas of the coastline, neighboring islands, and the vast expanse of the sea. "
Cuartel Ruins,"Oslob, Cebu",0,0,,,0:00:00,23:59:59,9.520215868,123.4341474,30 minutes,1,0,0,0,0,0,0,"/location_images/Cuartel_Ruins/Cuartel_Ruins.jpg,/location_images/Cuartel_Ruins/Cuartel_Ruins_Gp9vkrN.jpg,/location_images/Cuartel_Ruins/Cuartel_Ruins_s9OgJK9.jpg",,,,,"The Cuartel Ruins, located in the town of Oslob in Cebu, Philippines, are historic remnants of a once grand Spanish colonial structure. These ruins are a testament to the town's rich history and its ties to the Spanish colonial period in the Philippines.

The Cuartel Ruins were originally constructed as barracks during the late 19th century when the Philippines was under Spanish rule. The purpose of these barracks was to house Spanish soldiers and guards. The architecture of the Cuartel Ruins reflects the Spanish influence, featuring stone walls and arches reminiscent of colonial architecture."
Capila de Sta. Ana,"Toledo City, Cebu",0,,50,200,9:00:00,16:00:00,10.3702742,123.6275732,-,1,0,1,0,0,0,0,"/location_images/Capila_de_Sta._Ana/Capila_de_Sta._Ana.JPG,/location_images/Capila_de_Sta._Ana/Capila_de_Sta._Ana_b00YU2h.jpg",,,,,"Capilla de Santa Ana, also known as the Santa Ana Chapel, is a historic religious structure located in the city of Mandaue in Cebu, Philippines. This chapel is a beloved and significant landmark, not only for its religious importance but also for its architectural beauty and cultural significance.

The chapel is dedicated to Saint Anne, the mother of the Virgin Mary and the grandmother of Jesus. It serves as a place of worship and reflection for the Catholic community in Mandaue City. Capilla de Santa Ana is renowned for its traditional Spanish colonial architecture, which reflects the influence of the Spanish era in the Philippines."
Archdiocesan Museum of Cebu,"P. Burgos St, Cebu City, 6000 Cebu",0,100,,,9:00:00,17:00:00,10.29613547,123.9035637,1-2 hours,1,0,1,0,0,0,1,/location_images/Archdiocesan_Museum_of_Cebu/Archdiocesan_Museum_of_Cebu.jpg,,,,,"The Archdiocesan Museum of Cebu, also known as the Museo Sugbo, is a cultural institution and museum located in Cebu City, Philippines. This museum is dedicated to preserving and showcasing the rich history, art, and cultural heritage of the province of Cebu and the Visayas region.

The Museo Sugbo is housed in a historic building that was once the Cebu Provincial Detention and Rehabilitation Center. The structure itself is of historical significance and adds to the museum's character. The museum's collections are spread across several galleries and exhibition spaces, offering a comprehensive look at Cebu's past and cultural diversity."
OAD Tabor Hill,"Purok 3 Talamban Rd, Cebu City, 6000 Cebu",0,0,,,0:00:00,23:59:59,10.37912544,123.913167,-,0,0,1,0,0,0,0,/location_images/OAD_Tabor_Hill/OAD_Tabor_Hill.jpg,,,,,"OAD Tabor Hill, also known as the Our Lady of the Abandoned Del Tabor Parish and Retreat Center, is a religious and retreat center located in the mountainous barangay of Tabunan in Cebu City, Philippines. This serene and spiritual destination is known for its breathtaking views, religious significance, and the opportunity for quiet reflection and retreat.

One of the standout features of OAD Tabor Hill is its hilltop location, which offers panoramic vistas of the surrounding mountain ranges and lush greenery. "